COSMOS 2251 DEB         
1 35031U 93036AGU 17346.32974919  .00000065  00000-0  31537-4 0  9992
2 35031  74.0389 226.5582 0020236 315.7660  44.1874 14.35715627453300
